NORAD_CAT_ID,OBJECT_NAME,OBJECT_TYPE,EPOCH,MEAN_MOTION,ECCENTRICITY,INCLINATION,RA_OF_ASC_NODE,ARG_OF_PERICENTER,MEAN_ANOMALY,BSTAR,MEAN_MOTION_DOT,MEAN_MOTION_DDOT,TLE_LINE0,TLE_LINE1,TLE_LINE2,SEMIMAJOR_AXIS,PERIOD,APOGEE,PERIGEE,DECAYED
53255.0,STARLINK-4142,PAYLOAD,2023-05-15 07:41:32,15.0884201,0.000124,53.2155,135.1382,90.6527,269.4607,0.0001015,1.328e-05,0.0,0 STARLINK-4142,1 53255U 22086P   23135.32051232  .00001328  00000-0  10150-3 0  9994,2 53255  53.2155 135.1382 0001240  90.6527 269.4607 15.08842010 45486,6917.874,95.437,540.597,538.881,0.0
53255.0,STARLINK-4142,PAYLOAD,2023-05-15 17:13:51,15.08837425,0.0001208,53.2152,133.3534,89.4362,270.6769,4.3726e-05,4.08e-06,0.0,0 STARLINK-4142,1 53255U 22086P   23135.71795671  .00000408  00000-0  43726-4 0  9993,2 53255  53.2152 133.3534 0001208  89.4362 270.6769 15.08837425 45543,6917.888,95.438,540.589,538.918,0.0
53255.0,STARLINK-4142,PAYLOAD,2023-05-16 05:56:56,15.08835708,0.0001222,53.2152,130.9744,89.5945,270.5187,2.7789e-05,1.54e-06,0.0,0 STARLINK-4142,1 53255U 22086P   23136.24787922  .00000154  00000-0  27789-4 0  9991,2 53255  53.2152 130.9744 0001222  89.5945 270.5187 15.08835708 45807,6917.894,95.438,540.604,538.913,0.0
53255.0,STARLINK-4142,PAYLOAD,2023-05-16 17:04:38,15.08840407,0.0001232,53.2155,128.8929,88.5715,271.5418,3.7987e-05,3.17e-06,0.0,0 STARLINK-4142,1 53255U 22086P   23136.71155587  .00000317  00000-0  37987-4 0  9991,2 53255  53.2155 128.8929 0001232  88.5715 271.5418 15.08840407 45873,6917.879,95.438,540.596,538.892,0.0
53255.0,STARLINK-4142,PAYLOAD,2023-05-17 02:36:56,15.08844013,0.0001224,53.2154,127.1085,88.3087,271.8045,4.6135e-05,4.47e-06,0.0,0 STARLINK-4142,1 53255U 22086P   23137.10899254  .00000447  00000-0  46135-4 0  9990,2 53255  53.2154 127.1085 0001224  88.3087 271.8045 15.08844013 45751,6917.868,95.437,540.58,538.886,0.0
53255.0,STARLINK-4142,PAYLOAD,2023-05-17 08:58:29,15.08845623,0.0001244,53.2153,125.9195,84.9968,275.1166,6.0777e-05,6.8e-06,0.0,0 STARLINK-4142,1 53255U 22086P   23137.37395025  .00000680  00000-0  60777-4 0  9993,2 53255  53.2153 125.9195 0001244  84.9968 275.1166 15.08845623 45973,6917.863,95.437,540.589,538.868,0.0
53255.0,STARLINK-4142,PAYLOAD,2023-05-18 02:27:44,15.08837884,0.0001257,53.2153,122.6473,87.1347,272.9789,6.8259e-05,7.99e-06,0.0,0 STARLINK-4142,1 53255U 22086P   23138.10259445  .00000799  00000-0  68259-4 0  9994,2 53255  53.2153 122.6473 0001257  87.1347 272.9789 15.08837884 45905,6917.887,95.438,540.621,538.882,0.0
53255.0,STARLINK-4142,PAYLOAD,2023-05-18 05:38:30,15.08840305,0.0001233,53.2156,122.0522,87.1853,272.928,5.9783e-05,6.64e-06,0.0,0 STARLINK-4142,1 53255U 22086P   23138.23507295  .00000664  00000-0  59783-4 0  9990,2 53255  53.2156 122.0522 0001233  87.1853 272.9280 15.08840305 46104,6917.879,95.438,540.597,538.891,0.0
53255.0,STARLINK-4142,PAYLOAD,2023-05-19 05:29:17,15.08840237,0.0001261,53.2158,117.5919,86.8264,273.2873,1.0492e-05,-1.21e-06,0.0,0 STARLINK-4142,1 53255U 22086P   23139.22867533 -.00000121  00000-0  10492-4 0  9997,2 53255  53.2158 117.5919 0001261  86.8264 273.2873 15.08840237 46070,6917.88,95.438,540.617,538.872,0.0
53255.0,STARLINK-4142,PAYLOAD,2023-05-20 05:20:04,15.08840274,0.0001232,53.2159,113.1327,87.6252,272.4881,4.1982e-05,3.8e-06,0.0,0 STARLINK-4142,1 53255U 22086P   23140.22227614  .00000380  00000-0  41982-4 0  9993,2 53255  53.2159 113.1327 0001232  87.6252 272.4881 15.08840274 46408,6917.88,95.438,540.597,538.892,0.0
53255.0,STARLINK-4142,PAYLOAD,2023-05-21 06:46:13,15.0885041,0.0001357,53.2171,108.3768,96.6772,263.4374,0.0001449,2.02e-05,0.0,0 STARLINK-4142,1 53255U 22086P   23141.28210575  .00002020  00000-0  14490-3 0  9994,2 53255  53.2171 108.3768 0001357  96.6772 263.4374 15.08850410 46389,6917.849,95.437,540.652,538.775,0.0
53255.0,STARLINK-4142,PAYLOAD,2023-05-21 21:04:43,15.08834202,0.0001315,53.2169,105.7007,88.9356,271.1787,-1.9664e-05,-6.01e-06,0.0,0 STARLINK-4142,1 53255U 22086P   23141.87828298 -.00000601  00000-0 -19664-4 0  9990,2 53255  53.2169 105.7007 0001315  88.9356 271.1787 15.08834202 46654,6917.898,95.438,540.673,538.853,0.0
53255.0,STARLINK-4142,PAYLOAD,2023-05-22 06:37:03,15.08829818,0.0001074,53.2159,103.914,85.3786,274.7329,-5.7272e-05,-1.199e-05,0.0,0 STARLINK-4142,1 53255U 22086P   23142.27572952 -.00001199  00000-0 -57272-4 0  9998,2 53255  53.2159 103.9140 0001074  85.3786 274.7329 15.08829818 46536,6917.912,95.438,540.519,539.034,0.0
53255.0,STARLINK-4142,PAYLOAD,2023-05-22 20:55:30,15.0884214,0.0001011,53.2162,101.2351,86.4992,273.6116,-9.1647e-05,-1.746e-05,0.0,0 STARLINK-4142,1 53255U 22086P   23142.87188575 -.00001746  00000-0 -91647-4 0  9990,2 53255  53.2162 101.2351 0001011  86.4992 273.6116 15.08842140 46802,6917.874,95.437,540.438,539.039,0.0
53255.0,STARLINK-4142,PAYLOAD,2023-05-23 01:41:39,15.08845772,0.000105,53.2159,100.3451,91.4392,268.6721,-1.6007e-06,-3.13e-06,0.0,0 STARLINK-4142,1 53255U 22086P   23143.07059984 -.00000313  00000-0 -16007-5 0  9991,2 53255  53.2159 100.3451 0001050  91.4392 268.6721 15.08845772 46655,6917.863,95.437,540.454,539.001,0.0
53255.0,STARLINK-4142,PAYLOAD,2023-05-23 06:27:48,15.08851538,0.000112,53.2161,99.4521,92.716,267.3961,3.88e-05,3.3e-06,0.0,0 STARLINK-4142,1 53255U 22086P   23143.26931531  .00000330  00000-0  38800-4 0  9990,2 53255  53.2161  99.4521 0001120  92.7160 267.3961 15.08851538 46681,6917.845,95.437,540.485,538.935,0.0
53255.0,STARLINK-4142,PAYLOAD,2023-05-24 06:18:36,15.08841929,0.0001234,53.2161,94.9912,93.7622,266.3512,0.00025147,3.717e-05,0.0,0 STARLINK-4142,1 53255U 22086P   23144.26292007  .00003717  00000-0  25147-3 0  9990,2 53255  53.2161  94.9912 0001234  93.7622 266.3512 15.08841929 46836,6917.874,95.437,540.593,538.886,0.0
53255.0,STARLINK-4142,PAYLOAD,2023-05-26 02:49:23,15.0884752,0.0001363,53.2173,86.6636,91.7963,268.3185,7.5333e-05,9.11e-06,0.0,0 STARLINK-4142,1 53255U 22086P   23146.11763739  .00000911  00000-0  75333-4 0  9997,2 53255  53.2173  86.6636 0001363  91.7963 268.3185 15.08847520 47112,6917.857,95.437,540.665,538.779,0.0
53255.0,STARLINK-4142,PAYLOAD,2023-05-26 20:18:39,15.08835532,0.00013,53.2171,83.3952,85.7576,274.3565,2.9179e-05,1.76e-06,0.0,0 STARLINK-4142,1 53255U 22086P   23146.84628734  .00000176  00000-0  29179-4 0  9992,2 53255  53.2171  83.3952 0001300  85.7576 274.3565 15.08835532 47400,6917.894,95.438,540.658,538.86,0.0
53255.0,STARLINK-4142,PAYLOAD,2023-05-27 02:40:11,15.08837245,0.000117,53.2163,82.2077,89.655,270.4576,6.2258e-06,-1.89e-06,0.0,0 STARLINK-4142,1 53255U 22086P   23147.11124683 -.00000189  00000-0  62258-5 0  9998,2 53255  53.2163  82.2077 0001170  89.6550 270.4576 15.08837245 47263,6917.889,95.438,540.563,538.944,0.0
53255.0,STARLINK-4142,PAYLOAD,2023-05-28 02:31:00,15.08774427,0.0001655,53.2162,77.7484,100.6099,259.508,0.00080227,0.0001248,0.0,0 STARLINK-4142,1 53255U 22086P   23148.10486263  .00012480  00000-0  80227-3 0  9993,2 53255  53.2162  77.7484 0001655 100.6099 259.5080 15.08774427 47410,6918.081,95.442,541.091,538.801,0.0
53255.0,STARLINK-4142,PAYLOAD,2023-05-28 04:06:22,15.08803753,0.0001488,53.2167,77.4497,99.9839,260.1321,0.00048997,7.511e-05,0.0,0 STARLINK-4142,1 53255U 22086P   23148.17109620  .00007511  00000-0  48997-3 0  9996,2 53255  53.2167  77.4497 0001488  99.9839 260.1321 15.08803753 47424,6917.991,95.44,540.886,538.827,0.0
53255.0,STARLINK-4142,PAYLOAD,2023-05-29 03:57:08,15.0884536,0.0001175,53.2171,72.9892,93.6246,266.4881,0.00014567,2.032e-05,0.0,0 STARLINK-4142,1 53255U 22086P   23149.16468251  .00002032  00000-0  14567-3 0  9993,2 53255  53.2171  72.9892 0001175  93.6246 266.4881 15.08845360 47570,6917.864,95.437,540.542,538.916,0.0
53255.0,STARLINK-4142,PAYLOAD,2023-05-29 05:32:31,15.08846643,0.0001166,53.2171,72.6916,92.3371,267.7755,0.00015409,2.166e-05,0.0,0 STARLINK-4142,1 53255U 22086P   23149.23092150  .00002166  00000-0  15409-3 0  9996,2 53255  53.2171  72.6916 0001166  92.3371 267.7755 15.08846643 47769,6917.86,95.437,540.532,538.918,0.0
53255.0,STARLINK-4142,PAYLOAD,2023-05-29 18:15:37,15.08838875,0.0002003,53.217,70.3125,76.0831,284.0384,6.4416e-05,7.37e-06,0.0,0 STARLINK-4142,1 53255U 22086P   23149.76085336  .00000737  00000-0  64416-4 0  9997,2 53255  53.2170  70.3125 0002003  76.0831 284.0384 15.08838875 47663,6917.884,95.438,541.134,538.363,0.0
53255.0,STARLINK-4142,PAYLOAD,2023-05-30 00:37:10,15.08834139,0.000111,53.2176,69.1231,83.3023,276.8095,2.1059e-05,4.7e-07,0.0,0 STARLINK-4142,1 53255U 22086P   23150.02581663  .00000047  00000-0  21059-4 0  9992,2 53255  53.2176  69.1231 0001110  83.3023 276.8095 15.08834139 47707,6917.898,95.438,540.531,538.995,0.0
53255.0,STARLINK-4142,PAYLOAD,2023-05-30 02:12:33,15.08835113,0.0001142,53.2175,68.8245,100.1012,260.0109,2.9257e-05,1.78e-06,0.0,0 STARLINK-4142,1 53255U 22086P   23150.09205574  .00000178  00000-0  29257-4 0  9996,2 53255  53.2175  68.8245 0001142 100.1012 260.0109 15.08835113 47892,6917.895,95.438,540.55,538.97,0.0
53255.0,STARLINK-4142,PAYLOAD,2023-05-30 18:06:24,15.08844359,0.0001054,53.2177,65.8506,96.8438,263.2674,1.7198e-06,-2.6e-06,0.0,0 STARLINK-4142,1 53255U 22086P   23150.75445178 -.00000260  00000-0  17198-5 0  9990,2 53255  53.2177  65.8506 0001054  96.8438 263.2674 15.08844359 47812,6917.867,95.437,540.461,539.003,0.0
53255.0,STARLINK-4142,PAYLOAD,2023-05-30 21:17:10,15.08849168,0.0001037,53.2173,65.2569,100.9842,259.1267,2.7616e-05,1.52e-06,0.0,0 STARLINK-4142,1 53255U 22086P   23150.88692727  .00000152  00000-0  27616-4 0  9992,2 53255  53.2173  65.2569 0001037 100.9842 259.1267 15.08849168 48016,6917.852,95.437,540.435,539.0,0.0
53255.0,STARLINK-4142,PAYLOAD,2023-05-31 02:03:19,15.08853454,0.0001147,53.2176,64.3648,80.0617,280.0505,0.00011201,1.496e-05,0.0,0 STARLINK-4142,1 53255U 22086P   23151.08564277  .00001496  00000-0  11201-3 0  9997,2 53255  53.2176  64.3648 0001147  80.0617 280.0505 15.08853454 47860,6917.839,95.437,540.498,538.911,0.0
